{
    "links": {
        "self": "http://www.neowsapp.com/rest/v1/neo/3576674?api_key=iIulBulltgU6a56xZRHN4H3l9WmuAYTsLGpBGhQ2"
    },
    "id": "3576674",
    "neo_reference_id": "3576674",
    "name": "(2011 QC14)",
    "designation": "2011 QC14",
    "nasa_jpl_url": "http://ssd.jpl.nasa.gov/sbdb.cgi?sstr=3576674",
    "absolute_magnitude_h": 23.6,
    "estimated_diameter": {
        "kilometers": {
            "estimated_diameter_min": 0.0506471459,
            "estimated_diameter_max": 0.1132504611
        },
        "meters": {
            "estimated_diameter_min": 50.6471458835,
            "estimated_diameter_max": 113.2504610618
        },
        "miles": {
            "estimated_diameter_min": 0.0314706677,
            "estimated_diameter_max": 0.0703705522
        },
        "feet": {
            "estimated_diameter_min": 166.1651821003,
            "estimated_diameter_max": 371.5566426699
        }
    },
    "is_potentially_hazardous_asteroid": false,
    "close_approach_data": [
        {
            "close_approach_date": "2011-08-18",
            "close_approach_date_full": "2011-Aug-18 12:36",
            "epoch_date_close_approach": 1313670960000,
            "relative_velocity": {
                "kilometers_per_second": "7.4719644543",
                "kilometers_per_hour": "26899.072035594",
                "miles_per_hour": "16714.0372878945"
            },
            "miss_distance": {
                "astronomical": "0.0585716459",
                "lunar": "22.7843702551",
                "kilometers": "8762193.469034233",
                "miles": "5444574.5533810954"
            },
            "orbiting_body": "Earth"
        }
    ],
    "orbital_data": {
        "orbit_id": "10",
        "orbit_determination_date": "2017-04-06 08:52:58",
        "first_observation_date": "2011-08-23",
        "last_observation_date": "2011-09-03",
        "data_arc_in_days": 11,
        "observations_used": 46,
        "orbit_uncertainty": "8",
        "minimum_orbit_intersection": ".0538461",
        "jupiter_tisserand_invariant": "3.995",
        "epoch_osculation": "2455801.5",
        "eccentricity": ".3975524483165489",
        "semi_major_axis": "1.768372422417351",
        "inclination": "10.41557047129293",
        "ascending_node_longitude": "328.2123518972568",
        "orbital_period": "858.9324829779297",
        "perihelion_distance": "1.065351636349867",
        "perihelion_argument": "1.918426788851498",
        "aphelion_distance": "2.471393208484836",
        "perihelion_time": "2455795.663224839006",
        "mean_anomaly": "2.446337866595542",
        "mean_motion": ".4191249104375183",
        "equinox": "J2000",
        "orbit_class": {
            "orbit_class_type": "AMO",
            "orbit_class_description": "Near-Earth asteroid orbits similar to that of 1221 Amor",
            "orbit_class_range": "1.017 AU < q (perihelion) < 1.3 AU"
        }
    },
    "is_sentry_object": false
}